{
    "links": {
        "self": "http://www.neowsapp.com/rest/v1/neo/3739379?api_key=iIulBulltgU6a56xZRHN4H3l9WmuAYTsLGpBGhQ2"
    },
    "id": "3739379",
    "neo_reference_id": "3739379",
    "name": "(2016 AW64)",
    "designation": "2016 AW64",
    "nasa_jpl_url": "http://ssd.jpl.nasa.gov/sbdb.cgi?sstr=3739379",
    "absolute_magnitude_h": 23.0,
    "estimated_diameter": {
        "kilometers": {
            "estimated_diameter_min": 0.0667659413,
            "estimated_diameter_max": 0.1492931834
        },
        "meters": {
            "estimated_diameter_min": 66.7659413495,
            "estimated_diameter_max": 149.2931834393
        },
        "miles": {
            "estimated_diameter_min": 0.0414864197,
            "estimated_diameter_max": 0.0927664547
        },
        "feet": {
            "estimated_diameter_min": 219.0483710172,
            "estimated_diameter_max": 489.807047955
        }
    },
    "is_potentially_hazardous_asteroid": false,
    "close_approach_data": [
        {
            "close_approach_date": "2016-01-20",
            "close_approach_date_full": "2016-Jan-20 02:03",
            "epoch_date_close_approach": 1453255380000,
            "relative_velocity": {
                "kilometers_per_second": "16.2617667447",
                "kilometers_per_hour": "58542.3602808624",
                "miles_per_hour": "36375.9460311836"
            },
            "miss_distance": {
                "astronomical": "0.1107110677",
                "lunar": "43.0666053353",
                "kilometers": "16562139.913345799",
                "miles": "10291236.5311740662"
            },
            "orbiting_body": "Earth"
        }
    ],
    "orbital_data": {
        "orbit_id": "9",
        "orbit_determination_date": "2017-04-06 08:29:22",
        "first_observation_date": "2016-01-07",
        "last_observation_date": "2016-01-21",
        "data_arc_in_days": 14,
        "observations_used": 59,
        "orbit_uncertainty": "8",
        "minimum_orbit_intersection": ".0750884",
        "jupiter_tisserand_invariant": "3.339",
        "epoch_osculation": "2457398.5",
        "eccentricity": ".6133855922369917",
        "semi_major_axis": "2.247634142825073",
        "inclination": "9.451897204825313",
        "ascending_node_longitude": "280.5835177436688",
        "orbital_period": "1230.79821533167",
        "perihelion_distance": ".8689677429962324",
        "perihelion_argument": "256.3117808205722",
        "aphelion_distance": "3.626300542653914",
        "perihelion_time": "2457445.847318487604",
        "mean_anomaly": "346.1512354801845",
        "mean_motion": ".2924931117997996",
        "equinox": "J2000",
        "orbit_class": {
            "orbit_class_type": "APO",
            "orbit_class_description": "Near-Earth asteroid orbits which cross the Earth’s orbit similar to that of 1862 Apollo",
            "orbit_class_range": "a (semi-major axis) > 1.0 AU; q (perihelion) < 1.017 AU"
        }
    },
    "is_sentry_object": false
}